[{"OBJECT_NAME":"JILIN-1 08","OBJECT_ID":"2018-008F","EPOCH":"2026-03-09T22:37:53.184288","MEAN_MOTION":15.32205976,"ECCENTRICITY":0.00081321,"INCLINATION":97.1902,"RA_OF_ASC_NODE":90.9961,"ARG_OF_PERICENTER":76.0646,"MEAN_ANOMALY":284.15,"EPHEMERIS_TYPE":0,"CLASSIFICATION_TYPE":"U","NORAD_CAT_ID":43160,"ELEMENT_SET_NO":999,"REV_AT_EPOCH":44974,"BSTAR":0.00036689195,"MEAN_MOTION_DOT":0.00011349,"MEAN_MOTION_DDOT":0},{"OBJECT_NAME":"STARLINK-2226","OBJECT_ID":"2021-024AK","EPOCH":"2026-03-09T23:40:22.980576","MEAN_MOTION":15.30181181,"ECCENTRICITY":8.791e-5,"INCLINATION":53.1619,"RA_OF_ASC_NODE":331.0466,"ARG_OF_PERICENTER":98.8681,"MEAN_ANOMALY":261.2419,"EPHEMERIS_TYPE":0,"CLASSIFICATION_TYPE":"U","NORAD_CAT_ID":48010,"ELEMENT_SET_NO":999,"REV_AT_EPOCH":27461,"BSTAR":-8.687931e-6,"MEAN_MOTION_DOT":-6.16e-6,"MEAN_MOTION_DDOT":0}]
